[{"OBJECT_NAME":"ION SCV-010","OBJECT_ID":"2023-054Q","EPOCH":"2026-03-09T16:02:35.904768","MEAN_MOTION":15.25210322,"ECCENTRICITY":0.00127052,"INCLINATION":97.3904,"RA_OF_ASC_NODE":319.4312,"ARG_OF_PERICENTER":188.785,"MEAN_ANOMALY":171.3168,"EPHEMERIS_TYPE":0,"CLASSIFICATION_TYPE":"U","NORAD_CAT_ID":56192,"ELEMENT_SET_NO":999,"REV_AT_EPOCH":16102,"BSTAR":0.00025045068,"MEAN_MOTION_DOT":6.231e-5,"MEAN_MOTION_DDOT":0},{"OBJECT_NAME":"STARLINK-30992","OBJECT_ID":"2023-191S","EPOCH":"2026-03-09T11:49:24.138336","MEAN_MOTION":15.27227181,"ECCENTRICITY":0.00015435,"INCLINATION":43.0031,"RA_OF_ASC_NODE":104.3339,"ARG_OF_PERICENTER":249.8077,"MEAN_ANOMALY":110.2608,"EPHEMERIS_TYPE":0,"CLASSIFICATION_TYPE":"U","NORAD_CAT_ID":58524,"ELEMENT_SET_NO":999,"REV_AT_EPOCH":12544,"BSTAR":0.0021248429,"MEAN_MOTION_DOT":0.00058041,"MEAN_MOTION_DDOT":0}]
